[{"OBJECT_NAME":"SPAWAR-CAL-R","OBJECT_ID":"2018-099U","EPOCH":"2026-03-08T15:37:40.202400","MEAN_MOTION":15.05212097,"ECCENTRICITY":0.00197014,"INCLINATION":97.4524,"RA_OF_ASC_NODE":111.5817,"ARG_OF_PERICENTER":348.9052,"MEAN_ANOMALY":11.1737,"EPHEMERIS_TYPE":0,"CLASSIFICATION_TYPE":"U","NORAD_CAT_ID":43776,"ELEMENT_SET_NO":999,"REV_AT_EPOCH":39687,"BSTAR":0.00025335573,"MEAN_MOTION_DOT":3.57e-5,"MEAN_MOTION_DDOT":0},{"OBJECT_NAME":"COSMOS 2251 DEB","OBJECT_ID":"1993-036AZN","EPOCH":"2026-03-08T04:55:11.679456","MEAN_MOTION":14.74823481,"ECCENTRICITY":0.01364476,"INCLINATION":73.9716,"RA_OF_ASC_NODE":347.1087,"ARG_OF_PERICENTER":142.1945,"MEAN_ANOMALY":218.8911,"EPHEMERIS_TYPE":0,"CLASSIFICATION_TYPE":"U","NORAD_CAT_ID":36385,"ELEMENT_SET_NO":999,"REV_AT_EPOCH":86361,"BSTAR":0.002162243,"MEAN_MOTION_DOT":0.00016854,"MEAN_MOTION_DDOT":0}]
